ONEWEB-0057             
1 45160U 20008AF  26145.16399770  .00000626  00000+0  17570-2 0  9991
2 45160  87.8856  40.8556 0002354  81.5068 278.6326 13.10373227305337
ONEWEB-0058             
1 45161U 20008AG  26145.15071428  .00000511  00000+0  14276-2 0  9991
2 45161  87.8855  40.8653 0001703  72.4712 287.6601 13.10375759305403
ONEWEB-0059             
1 45162U 20008AH  26145.14739661  .00000287  00000+0  78540-3 0  9996
2 45162  87.8856  40.8649 0001903  73.6072 286.5264 13.10371175305304
ONEWEB-0062             
1 45163U 20008AJ  26145.17035742  .00000455  00000+0  12682-2 0  9990
2 45163  87.8858  40.8462 0001435  72.5809 287.5475 13.10370192305174
ONEWEB-0065             
1 45164U 20008AK  26145.12718440 -.00000581  00000+0 -17012-2 0  9993
2 45164  87.8861  40.8628 0002114  87.0563 273.0806 13.10374718304867
ONEWEB-0066             
1 45424U 20020A   26145.10507398  .00000293  00000+0  78975-3 0  9996
2 45424  87.8914  25.6634 0001867  76.3193 283.8143 13.11418148299657
ONEWEB-0067             
1 45425U 20020B   26145.14306362 -.00000207  00000+0 -62039-3 0  9990
2 45425  87.8929  25.5738 0001978  84.7898 275.3456 13.11421409299710
ONEWEB-0080             
1 45426U 20020C   26145.14250263 -.00000216  00000+0 -64466-3 0  9995
2 45426  87.8917  25.6504 0001482  77.5324 282.5970 13.11414729299688
ONEWEB-0090             
1 45427U 20020D   26145.09503168 -.00000109  00000+0 -34206-3 0  9995
2 45427  87.8920  25.6645 0001719  81.5369 278.5954 13.11418667299644
ONEWEB-0061             
1 45428U 20020E   26145.12697588  .00000418  00000+0  11444-2 0  9999
2 45428  87.8916  25.6433 0001777  80.1651 279.9678 13.11415047299601
ONEWEB-0081             
1 45429U 20020F   26145.10846927  .00000390  00000+0  10656-2 0  9994
2 45429  87.8912  25.6581 0001962  78.9974 281.1375 13.11418663299719
ONEWEB-0069             
1 45430U 20020G   26145.10992589  .00000472  00000+0  13060-2 0  9995
2 45430  87.8915  25.6601 0001869  80.4828 279.6511 13.10861144299640
ONEWEB-0031             
1 45431U 20020H   26145.14575600 -.00000282  00000+0 -83243-3 0  9993
2 45431  87.8904  25.6601 0001605  80.4575 279.6734 13.11414616299631
ONEWEB-0027             
1 45432U 20020J   26145.07763001  .00000059  00000+0  12130-3 0  9997
2 45432  87.9161  10.4483 0001550  93.0994 267.0314 13.16052239303312
ONEWEB-0064             
1 45433U 20020K   26145.14406959 -.00000294  00000+0 -86621-3 0  9991
2 45433  87.8907  25.6514 0001611  83.4798 276.6513 13.11415997299664
ONEWEB-0018             
1 45434U 20020L   26145.09998601  .00000098  00000+0  24085-3 0  9992
2 45434  87.8913  25.6594 0001817  69.1070 291.0252 13.11418824299609
