[{"OBJECT_NAME":"ONEWEB-0057","OBJECT_ID":"2020-008AF","EPOCH":"2026-05-25T03:56:09.401280","MEAN_MOTION":13.10373227,"ECCENTRICITY":0.0002354,"INCLINATION":87.8856,"RA_OF_ASC_NODE":40.8556,"ARG_OF_PERICENTER":81.5068,"MEAN_ANOMALY":278.6326,"EPHEMERIS_TYPE":0,"CLASSIFICATION_TYPE":"U","NORAD_CAT_ID":45160,"ELEMENT_SET_NO":999,"REV_AT_EPOCH":30533,"BSTAR":0.0017569999999999999,"MEAN_MOTION_DOT":6.26e-06,"MEAN_MOTION_DDOT":0.0},{"OBJECT_NAME":"ONEWEB-0058","OBJECT_ID":"2020-008AG","EPOCH":"2026-05-25T03:37:01.713792","MEAN_MOTION":13.10375759,"ECCENTRICITY":0.0001703,"INCLINATION":87.8855,"RA_OF_ASC_NODE":40.8653,"ARG_OF_PERICENTER":72.4712,"MEAN_ANOMALY":287.6601,"EPHEMERIS_TYPE":0,"CLASSIFICATION_TYPE":"U","NORAD_CAT_ID":45161,"ELEMENT_SET_NO":999,"REV_AT_EPOCH":30540,"BSTAR":0.0014276,"MEAN_MOTION_DOT":5.11e-06,"MEAN_MOTION_DDOT":0.0},{"OBJECT_NAME":"ONEWEB-0059","OBJECT_ID":"2020-008AH","EPOCH":"2026-05-25T03:32:15.067104","MEAN_MOTION":13.10371175,"ECCENTRICITY":0.0001903,"INCLINATION":87.8856,"RA_OF_ASC_NODE":40.8649,"ARG_OF_PERICENTER":73.6072,"MEAN_ANOMALY":286.5264,"EPHEMERIS_TYPE":0,"CLASSIFICATION_TYPE":"U","NORAD_CAT_ID":45162,"ELEMENT_SET_NO":999,"REV_AT_EPOCH":30530,"BSTAR":0.0007854,"MEAN_MOTION_DOT":2.87e-06,"MEAN_MOTION_DDOT":0.0},{"OBJECT_NAME":"ONEWEB-0062","OBJECT_ID":"2020-008AJ","EPOCH":"2026-05-25T04:05:18.881088","MEAN_MOTION":13.10370192,"ECCENTRICITY":0.0001435,"INCLINATION":87.8858,"RA_OF_ASC_NODE":40.8462,"ARG_OF_PERICENTER":72.5809,"MEAN_ANOMALY":287.5475,"EPHEMERIS_TYPE":0,"CLASSIFICATION_TYPE":"U","NORAD_CAT_ID":45163,"ELEMENT_SET_NO":999,"REV_AT_EPOCH":30517,"BSTAR":0.0012682,"MEAN_MOTION_DOT":4.55e-06,"MEAN_MOTION_DDOT":0.0},{"OBJECT_NAME":"ONEWEB-0065","OBJECT_ID":"2020-008AK","EPOCH":"2026-05-25T03:03:08.732160","MEAN_MOTION":13.10374718,"ECCENTRICITY":0.0002114,"INCLINATION":87.8861,"RA_OF_ASC_NODE":40.8628,"ARG_OF_PERICENTER":87.0563,"MEAN_ANOMALY":273.0806,"EPHEMERIS_TYPE":0,"CLASSIFICATION_TYPE":"U","NORAD_CAT_ID":45164,"ELEMENT_SET_NO":999,"REV_AT_EPOCH":30486,"BSTAR":-0.0017012,"MEAN_MOTION_DOT":-5.81e-06,"MEAN_MOTION_DDOT":0.0},{"OBJECT_NAME":"ONEWEB-0066","OBJECT_ID":"2020-020A","EPOCH":"2026-05-25T02:31:18.391872","MEAN_MOTION":13.11418148,"ECCENTRICITY":0.0001867,"INCLINATION":87.8914,"RA_OF_ASC_NODE":25.6634,"ARG_OF_PERICENTER":76.3193,"MEAN_ANOMALY":283.8143,"EPHEMERIS_TYPE":0,"CLASSIFICATION_TYPE":"U","NORAD_CAT_ID":45424,"ELEMENT_SET_NO":999,"REV_AT_EPOCH":29965,"BSTAR":0.00078975,"MEAN_MOTION_DOT":2.93e-06,"MEAN_MOTION_DDOT":0.0},{"OBJECT_NAME":"ONEWEB-0067","OBJECT_ID":"2020-020B","EPOCH":"2026-05-25T03:26:00.696768","MEAN_MOTION":13.11421409,"ECCENTRICITY":0.0001978,"INCLINATION":87.8929,"RA_OF_ASC_NODE":25.5738,"ARG_OF_PERICENTER":84.7898,"MEAN_ANOMALY":275.3456,"EPHEMERIS_TYPE":0,"CLASSIFICATION_TYPE":"U","NORAD_CAT_ID":45425,"ELEMENT_SET_NO":999,"REV_AT_EPOCH":29971,"BSTAR":-0.00062039,"MEAN_MOTION_DOT":-2.07e-06,"MEAN_MOTION_DDOT":0.0},{"OBJECT_NAME":"ONEWEB-0080","OBJECT_ID":"2020-020C","EPOCH":"2026-05-25T03:25:12.227232","MEAN_MOTION":13.11414729,"ECCENTRICITY":0.0001482,"INCLINATION":87.8917,"RA_OF_ASC_NODE":25.6504,"ARG_OF_PERICENTER":77.5324,"MEAN_ANOMALY":282.597,"EPHEMERIS_TYPE":0,"CLASSIFICATION_TYPE":"U","NORAD_CAT_ID":45426,"ELEMENT_SET_NO":999,"REV_AT_EPOCH":29968,"BSTAR":-0.00064466,"MEAN_MOTION_DOT":-2.16e-06,"MEAN_MOTION_DDOT":0.0},{"OBJECT_NAME":"ONEWEB-0090","OBJECT_ID":"2020-020D","EPOCH":"2026-05-25T02:16:50.737152","MEAN_MOTION":13.11418667,"ECCENTRICITY":0.0001719,"INCLINATION":87.892,"RA_OF_ASC_NODE":25.6645,"ARG_OF_PERICENTER":81.5369,"MEAN_ANOMALY":278.5954,"EPHEMERIS_TYPE":0,"CLASSIFICATION_TYPE":"U","NORAD_CAT_ID":45427,"ELEMENT_SET_NO":999,"REV_AT_EPOCH":29964,"BSTAR":-0.00034206,"MEAN_MOTION_DOT":-1.09e-06,"MEAN_MOTION_DDOT":0.0},{"OBJECT_NAME":"ONEWEB-0061","OBJECT_ID":"2020-020E","EPOCH":"2026-05-25T03:02:50.716032","MEAN_MOTION":13.11415047,"ECCENTRICITY":0.0001777,"INCLINATION":87.8916,"RA_OF_ASC_NODE":25.6433,"ARG_OF_PERICENTER":80.1651,"MEAN_ANOMALY":279.9678,"EPHEMERIS_TYPE":0,"CLASSIFICATION_TYPE":"U","NORAD_CAT_ID":45428,"ELEMENT_SET_NO":999,"REV_AT_EPOCH":29960,"BSTAR":0.0011444,"MEAN_MOTION_DOT":4.18e-06,"MEAN_MOTION_DDOT":0.0},{"OBJECT_NAME":"ONEWEB-0081","OBJECT_ID":"2020-020F","EPOCH":"2026-05-25T02:36:11.744928","MEAN_MOTION":13.11418663,"ECCENTRICITY":0.0001962,"INCLINATION":87.8912,"RA_OF_ASC_NODE":25.6581,"ARG_OF_PERICENTER":78.9974,"MEAN_ANOMALY":281.1375,"EPHEMERIS_TYPE":0,"CLASSIFICATION_TYPE":"U","NORAD_CAT_ID":45429,"ELEMENT_SET_NO":999,"REV_AT_EPOCH":29971,"BSTAR":0.0010656,"MEAN_MOTION_DOT":3.9e-06,"MEAN_MOTION_DDOT":0.0},{"OBJECT_NAME":"ONEWEB-0069","OBJECT_ID":"2020-020G","EPOCH":"2026-05-25T02:38:17.596896","MEAN_MOTION":13.10861144,"ECCENTRICITY":0.0001869,"INCLINATION":87.8915,"RA_OF_ASC_NODE":25.6601,"ARG_OF_PERICENTER":80.4828,"MEAN_ANOMALY":279.6511,"EPHEMERIS_TYPE":0,"CLASSIFICATION_TYPE":"U","NORAD_CAT_ID":45430,"ELEMENT_SET_NO":999,"REV_AT_EPOCH":29964,"BSTAR":0.0013059999999999999,"MEAN_MOTION_DOT":4.72e-06,"MEAN_MOTION_DDOT":0.0},{"OBJECT_NAME":"ONEWEB-0031","OBJECT_ID":"2020-020H","EPOCH":"2026-05-25T03:29:53.318400","MEAN_MOTION":13.11414616,"ECCENTRICITY":0.0001605,"INCLINATION":87.8904,"RA_OF_ASC_NODE":25.6601,"ARG_OF_PERICENTER":80.4575,"MEAN_ANOMALY":279.6734,"EPHEMERIS_TYPE":0,"CLASSIFICATION_TYPE":"U","NORAD_CAT_ID":45431,"ELEMENT_SET_NO":999,"REV_AT_EPOCH":29963,"BSTAR":-0.00083243,"MEAN_MOTION_DOT":-2.82e-06,"MEAN_MOTION_DDOT":0.0},{"OBJECT_NAME":"ONEWEB-0027","OBJECT_ID":"2020-020J","EPOCH":"2026-05-25T01:51:47.232864","MEAN_MOTION":13.16052239,"ECCENTRICITY":0.000155,"INCLINATION":87.9161,"RA_OF_ASC_NODE":10.4483,"ARG_OF_PERICENTER":93.0994,"MEAN_ANOMALY":267.0314,"EPHEMERIS_TYPE":0,"CLASSIFICATION_TYPE":"U","NORAD_CAT_ID":45432,"ELEMENT_SET_NO":999,"REV_AT_EPOCH":30331,"BSTAR":0.00012130000000000001,"MEAN_MOTION_DOT":5.9e-07,"MEAN_MOTION_DDOT":0.0},{"OBJECT_NAME":"ONEWEB-0064","OBJECT_ID":"2020-020K","EPOCH":"2026-05-25T03:27:27.612576","MEAN_MOTION":13.11415997,"ECCENTRICITY":0.0001611,"INCLINATION":87.8907,"RA_OF_ASC_NODE":25.6514,"ARG_OF_PERICENTER":83.4798,"MEAN_ANOMALY":276.6513,"EPHEMERIS_TYPE":0,"CLASSIFICATION_TYPE":"U","NORAD_CAT_ID":45433,"ELEMENT_SET_NO":999,"REV_AT_EPOCH":29966,"BSTAR":-0.0008662100000000001,"MEAN_MOTION_DOT":-2.94e-06,"MEAN_MOTION_DDOT":0.0},{"OBJECT_NAME":"ONEWEB-0018","OBJECT_ID":"2020-020L","EPOCH":"2026-05-25T02:23:58.791264","MEAN_MOTION":13.11418824,"ECCENTRICITY":0.0001817,"INCLINATION":87.8913,"RA_OF_ASC_NODE":25.6594,"ARG_OF_PERICENTER":69.107,"MEAN_ANOMALY":291.0252,"EPHEMERIS_TYPE":0,"CLASSIFICATION_TYPE":"U","NORAD_CAT_ID":45434,"ELEMENT_SET_NO":999,"REV_AT_EPOCH":29960,"BSTAR":0.00024085000000000003,"MEAN_MOTION_DOT":9.8e-07,"MEAN_MOTION_DDOT":0.0}]